NORAD_CAT_ID,OBJECT_NAME,OBJECT_TYPE,EPOCH,MEAN_MOTION,ECCENTRICITY,INCLINATION,RA_OF_ASC_NODE,ARG_OF_PERICENTER,MEAN_ANOMALY,BSTAR,MEAN_MOTION_DOT,MEAN_MOTION_DDOT,TLE_LINE0,TLE_LINE1,TLE_LINE2,SEMIMAJOR_AXIS,PERIOD,APOGEE,PERIGEE,DECAYED
52311.0,STARLINK-3750,PAYLOAD,2024-05-02 01:16:22,15.08846581,0.0001539,53.2151,246.6601,78.9724,281.1441,-4.6616e-07,-2.95e-06,0.0,0 STARLINK-3750,1 52311U 22041BC  24123.05303434 -.00000295  00000-0 -46616-6 0  9992,2 52311  53.2151 246.6601 0001539  78.9724 281.1441 15.08846581113711,6917.86,95.437,540.79,538.661,0.0
52311.0,STARLINK-3750,PAYLOAD,2024-05-02 12:24:04,15.08834251,0.0001858,53.2153,244.5818,86.6099,273.5105,6.0899e-05,6.81e-06,0.0,0 STARLINK-3750,1 52311U 22041BC  24123.51671939  .00000681  00000-0  60899-4 0  9995,2 52311  53.2153 244.5818 0001858  86.6099 273.5105 15.08834251113785,6917.898,95.438,541.048,538.478,0.0
52311.0,STARLINK-3750,PAYLOAD,2024-05-02 13:59:27,15.08834392,0.0001643,53.2156,244.2831,84.8333,275.2847,-0.00011462,-2.111e-05,0.0,0 STARLINK-3750,1 52311U 22041BC  24123.58295922 -.00002111  00000-0 -11462-3 0  9999,2 52311  53.2156 244.2831 0001643  84.8333 275.2847 15.08834392113792,6917.898,95.438,540.899,538.626,0.0
52311.0,STARLINK-3750,PAYLOAD,2024-05-03 13:50:13,15.08858112,0.0001235,53.214,239.821,98.0212,262.092,0.0005325,8.201e-05,0.0,0 STARLINK-3750,1 52311U 22041BC  24124.57655021  .00008201  00000-0  53250-3 0  9994,2 52311  53.2140 239.8210 0001235  98.0212 262.0920 15.08858112113945,6917.825,95.436,540.544,538.836,0.0
52311.0,STARLINK-3750,PAYLOAD,2024-05-03 15:25:36,15.08862959,0.0001367,53.2147,239.524,91.8097,268.3052,0.00069,0.00010717,0.0,0 STARLINK-3750,1 52311U 22041BC  24124.64278904  .00010717  00000-0  69000-3 0  9998,2 52311  53.2147 239.5240 0001367  91.8097 268.3052 15.08862959113950,6917.81,95.436,540.621,538.73,0.0
52311.0,STARLINK-3750,PAYLOAD,2024-05-04 00:57:55,15.08844822,0.0001368,53.2149,237.7409,89.4132,270.7017,-0.00012735,-2.314e-05,0.0,0 STARLINK-3750,1 52311U 22041BC  24125.04022996 -.00002314  00000-0 -12735-3 0  9990,2 52311  53.2149 237.7409 0001368  89.4132 270.7017 15.08844822114018,6917.866,95.437,540.677,538.784,0.0
52311.0,STARLINK-3750,PAYLOAD,2024-05-04 12:05:38,15.08825574,0.000132,53.2154,235.6591,99.2001,260.9141,-0.00033463,-5.607e-05,0.0,0 STARLINK-3750,1 52311U 22041BC  24125.50391877 -.00005607  00000-0 -33463-3 0  9997,2 52311  53.2154 235.6591 0001320  99.2001 260.9141 15.08825574114084,6917.924,95.438,540.703,538.876,0.0
52311.0,STARLINK-3750,PAYLOAD,2024-05-05 11:56:26,15.08854185,0.0001243,53.2159,231.198,103.7766,256.3365,0.0014398,0.0002271,0.0,0 STARLINK-3750,1 52311U 22041BC  24126.49752422  .00022710  00000-0  14398-2 0  9990,2 52311  53.2159 231.1980 0001243 103.7766 256.3365 15.08854185114239,6917.837,95.437,540.562,538.842,0.0
52311.0,STARLINK-3750,PAYLOAD,2024-05-05 13:31:49,15.08857872,0.0001237,53.2161,230.901,100.6773,259.4358,0.0015942,0.00025187,0.0,0 STARLINK-3750,1 52311U 22041BC  24126.56376370  .00025187  00000-0  15942-2 0  9999,2 52311  53.2161 230.9010 0001237 100.6773 259.4358 15.08857872114243,6917.826,95.436,540.546,538.835,0.0
52311.0,STARLINK-3750,PAYLOAD,2024-05-05 16:42:35,15.08864811,0.0001227,53.2162,230.3064,99.535,260.5781,0.0016971,0.00026843,0.0,0 STARLINK-3750,1 52311U 22041BC  24126.69624189  .00026843  00000-0  16971-2 0  9990,2 52311  53.2162 230.3064 0001227  99.5350 260.5781 15.08864811114269,6917.805,95.436,540.518,538.821,0.0
52311.0,STARLINK-3750,PAYLOAD,2024-05-06 11:47:12,15.08845232,0.0002131,53.2176,226.7337,132.9461,227.171,0.00091749,0.00014346,0.0,0 STARLINK-3750,1 52311U 22041BC  24127.49112251  .00014346  00000-0  91749-3 0  9993,2 52311  53.2176 226.7337 0002131 132.9461 227.1710 15.08845232114386,6917.864,95.437,541.204,538.255,0.0
52311.0,STARLINK-3750,PAYLOAD,2024-05-07 13:13:23,15.08852383,0.0001163,53.2167,221.9817,95.2976,264.8149,0.00047988,7.36e-05,0.0,0 STARLINK-3750,1 52311U 22041BC  24128.55096139  .00007360  00000-0  47988-3 0  9991,2 52311  53.2167 221.9817 0001163  95.2976 264.8149 15.08852383114549,6917.843,95.437,540.512,538.903,0.0
52311.0,STARLINK-3750,PAYLOAD,2024-05-08 13:04:10,15.08842047,0.0001163,53.2157,217.5192,85.1205,274.992,0.00018318,2.629e-05,0.0,0 STARLINK-3750,1 52311U 22041BC  24129.54456454  .00002629  00000-0  18318-3 0  9999,2 52311  53.2157 217.5192 0001163  85.1205 274.9920 15.08842047114699,6917.874,95.437,540.544,538.935,0.0
52311.0,STARLINK-3750,PAYLOAD,2024-05-09 12:54:57,15.08855688,0.0001238,53.2153,213.0602,89.3623,270.7511,0.00047488,7.281e-05,0.0,0 STARLINK-3750,1 52311U 22041BC  24130.53816045  .00007281  00000-0  47488-3 0  9995,2 52311  53.2153 213.0602 0001238  89.3623 270.7511 15.08855688114847,6917.832,95.437,540.554,538.841,0.0
52311.0,STARLINK-3750,PAYLOAD,2024-05-10 12:45:44,15.08845209,0.0001158,53.2145,208.6001,93.4922,266.6203,0.00032576,4.901e-05,0.0,0 STARLINK-3750,1 52311U 22041BC  24131.53176479  .00004901  00000-0  32576-3 0  9994,2 52311  53.2145 208.6001 0001158  93.4922 266.6203 15.08845209114996,6917.864,95.437,540.531,538.928,0.0
52311.0,STARLINK-3750,PAYLOAD,2024-05-11 12:36:29,15.08979072,0.0001704,53.2158,204.1345,65.6934,294.4236,0.0057227,0.00092336,0.0,0 STARLINK-3750,1 52311U 22041BC  24132.52533640  .00092336  00000-0  57227-2 0  9999,2 52311  53.2158 204.1345 0001704  65.6934 294.4236 15.08979072115142,6917.455,95.429,540.499,538.142,0.0
52311.0,STARLINK-3750,PAYLOAD,2024-05-11 20:33:27,15.08771534,0.0003924,53.2148,202.6465,59.3137,300.8242,0.0023109,0.00036616,0.0,0 STARLINK-3750,1 52311U 22041BC  24132.85656571  .00036616  00000-0  23109-2 0  9995,2 52311  53.2148 202.6465 0003924  59.3137 300.8242 15.08771534115195,6918.09,95.442,542.669,537.24,0.0
52311.0,STARLINK-3750,PAYLOAD,2024-05-11 22:08:50,15.08693897,9.65e-05,53.2156,202.3562,113.3607,246.7487,4.822e-06,-2.11e-06,0.0,0 STARLINK-3750,1 52311U 22041BC  24132.92280131 -.00000211  00000-0  48220-5 0  9995,2 52311  53.2156 202.3562 0000965 113.3607 246.7487 15.08693897115200,6918.327,95.447,540.86,539.524,0.0
52311.0,STARLINK-3750,PAYLOAD,2024-05-12 10:52:00,15.08729695,0.0001406,53.2139,199.9764,95.5309,264.5844,0.0028528,0.00045269,0.0,0 STARLINK-3750,1 52311U 22041BC  24133.45277790  .00045269  00000-0  28528-2 0  9998,2 52311  53.2139 199.9764 0001406  95.5309 264.5844 15.08729695115286,6918.218,95.445,541.055,539.11,0.0
52311.0,STARLINK-3750,PAYLOAD,2024-05-12 21:59:42,15.0881276,0.0001428,53.2152,197.8929,103.2435,256.8717,0.0034925,0.00055693,0.0,0 STARLINK-3750,1 52311U 22041BC  24133.91646931  .00055693  00000-0  34925-2 0  9996,2 52311  53.2152 197.8929 0001428 103.2435 256.8717 15.08812760115359,6917.964,95.439,540.817,538.841,0.0
52311.0,STARLINK-3750,PAYLOAD,2024-05-13 04:21:15,15.08854235,9.33e-05,53.2142,196.7041,80.6642,279.4456,0.002319,0.00036826,0.0,0 STARLINK-3750,1 52311U 22041BC  24134.18142428  .00036826  00000-0  23190-2 0  9997,2 52311  53.2142 196.7041 0000933  80.6642 279.4456 15.08854235115397,6917.837,95.437,540.347,539.056,0.0
52311.0,STARLINK-3750,PAYLOAD,2024-05-13 10:42:47,15.08871284,0.0001265,53.215,195.5148,76.9582,283.1551,0.0016592,0.00026239,0.0,0 STARLINK-3750,1 52311U 22041BC  24134.44637985  .00026239  00000-0  16592-2 0  9998,2 52311  53.2150 195.5148 0001265  76.9582 283.1551 15.08871284115437,6917.785,95.436,540.525,538.775,0.0
52311.0,STARLINK-3750,PAYLOAD,2024-05-14 04:12:00,15.0888946,0.0001299,53.2146,192.2432,77.3905,282.7232,0.00091775,0.00014368,0.0,0 STARLINK-3750,1 52311U 22041BC  24135.17500037  .00014368  00000-0  91775-3 0  9993,2 52311  53.2146 192.2432 0001299  77.3905 282.7232 15.08889460115541,6917.729,95.434,540.493,538.696,0.0
52311.0,STARLINK-3750,PAYLOAD,2024-05-14 10:33:31,15.08888273,0.0002189,53.2158,191.0532,99.2431,260.8808,0.00051323,7.9e-05,0.0,0 STARLINK-3750,1 52311U 22041BC  24135.43995324  .00007900  00000-0  51323-3 0  9998,2 52311  53.2158 191.0532 0002189  99.2431 260.8808 15.08888273115589,6917.733,95.435,541.112,538.084,0.0
52311.0,STARLINK-3750,PAYLOAD,2024-05-14 20:05:50,15.08862752,7.45e-05,53.2158,189.2683,73.6865,286.4209,-3.0937e-06,-3.37e-06,0.0,0 STARLINK-3750,1 52311U 22041BC  24135.83739267 -.00000337  00000-0 -30937-5 0  9993,2 52311  53.2158 189.2683 0000745  73.6865 286.4209 15.08862752115648,6917.811,95.436,540.191,539.16,0.0
52311.0,STARLINK-3750,PAYLOAD,2024-05-15 10:24:18,15.08887093,0.0001221,53.2153,186.5936,88.7874,271.3258,0.0026468,0.00042142,0.0,0 STARLINK-3750,1 52311U 22041BC  24136.43354672  .00042142  00000-0  26468-2 0  9992,2 52311  53.2153 186.5936 0001221  88.7874 271.3258 15.08887093115733,6917.736,95.435,540.446,538.757,0.0
52311.0,STARLINK-3750,PAYLOAD,2024-05-16 11:50:27,15.08886667,0.0001299,53.2154,181.8365,83.4097,276.7043,0.0014372,0.00022688,0.0,0 STARLINK-3750,1 52311U 22041BC  24137.49336812  .00022688  00000-0  14372-2 0  9999,2 52311  53.2154 181.8365 0001299  83.4097 276.7043 15.08886667115896,6917.738,95.435,540.501,538.704,0.0
52311.0,STARLINK-3750,PAYLOAD,2024-05-16 13:25:49,15.0889167,0.0001298,53.2149,181.5378,84.8794,275.2346,0.0011525,0.00018128,0.0,0 STARLINK-3750,1 52311U 22041BC  24137.55960491  .00018128  00000-0  11525-2 0  9993,2 52311  53.2149 181.5378 0001298  84.8794 275.2346 15.08891670115901,6917.722,95.434,540.485,538.69,0.0
52311.0,STARLINK-3750,PAYLOAD,2024-05-16 19:47:22,15.0886433,0.0001459,53.2145,180.3442,67.8331,292.2816,0.00055879,8.622e-05,0.0,0 STARLINK-3750,1 52311U 22041BC  24137.82456409  .00008622  00000-0  55879-3 0  9991,2 52311  53.2145 180.3442 0001459  67.8331 292.2816 15.08864330115941,6917.806,95.436,540.68,538.662,0.0
52311.0,STARLINK-3750,PAYLOAD,2024-05-17 11:41:14,15.08829449,0.0001682,53.2156,177.3781,86.8417,273.2767,-0.00033652,-5.638e-05,0.0,0 STARLINK-3750,1 52311U 22041BC  24138.48697714 -.00005638  00000-0 -33652-3 0  9991,2 52311  53.2156 177.3781 0001682  86.8417 273.2767 15.08829449116047,6917.913,95.438,540.941,538.614,0.0
